[{"OBJECT_NAME":"JILIN-1 GAOFEN 3E","OBJECT_ID":"2020-065D","EPOCH":"2026-03-09T22:59:08.454336","MEAN_MOTION":15.53809917,"ECCENTRICITY":0.0014948,"INCLINATION":97.2429,"RA_OF_ASC_NODE":119.941,"ARG_OF_PERICENTER":163.8622,"MEAN_ANOMALY":196.3111,"EPHEMERIS_TYPE":0,"CLASSIFICATION_TYPE":"U","NORAD_CAT_ID":46457,"ELEMENT_SET_NO":999,"REV_AT_EPOCH":30430,"BSTAR":0.00073202996,"MEAN_MOTION_DOT":0.00047327,"MEAN_MOTION_DDOT":0},{"OBJECT_NAME":"SHIYAN-13 (SY-13)","OBJECT_ID":"2022-004A","EPOCH":"2026-03-09T23:59:10.497984","MEAN_MOTION":14.19820132,"ECCENTRICITY":0.06076023,"INCLINATION":98.4671,"RA_OF_ASC_NODE":92.2685,"ARG_OF_PERICENTER":122.0091,"MEAN_ANOMALY":244.1614,"EPHEMERIS_TYPE":0,"CLASSIFICATION_TYPE":"U","NORAD_CAT_ID":51102,"ELEMENT_SET_NO":999,"REV_AT_EPOCH":21321,"BSTAR":0.0002501462,"MEAN_MOTION_DOT":3.736e-5,"MEAN_MOTION_DDOT":0}]
